{
"type": "FeatureCollection",
"name": "caminos",
"crs": { "type": "name", "properties": { "name": "urn:ogc:def:crs:OGC:1.3:CRS84" } },
"features": [
{ "type": "Feature", "properties": { "Longitud K": "10.4", "id": "42", "Estado": "Abierto", "Espejo Agu": null, "NombreCami": "Camino Nº 42" }, "geometry": { "type": "MultiLineString", "coordinates": [ [ [ -62.581818032958203, -34.128612892250224 ], [ -62.471223115817359, -34.148426273521125 ] ] ] } },
{ "type": "Feature", "properties": { "Longitud K": "15.6", "id": "1-S", "Estado": "Abierto", "Espejo Agu": null, "NombreCami": "Camino 1-S" }, "geometry": { "type": "MultiLineString", "coordinates": [ [ [ -62.511001978594798, -34.300726374040941 ], [ -62.475049561084624, -34.163178066994767 ] ] ] } },
{ "type": "Feature", "properties": { "Longitud K": "6", "id": "43", "Estado": "Abierto", "Espejo Agu": null, "NombreCami": "Camino Nº 43" }, "geometry": { "type": "MultiLineString", "coordinates": [ [ [ -62.548199733687674, -33.999346061567465 ], [ -62.534148767838992, -33.945049063412505 ] ] ] } },
{ "type": "Feature", "properties": { "Longitud K": "2", "id": "45", "Estado": "Abierto", "Espejo Agu": null, "NombreCami": "Camino Nº 45" }, "geometry": { "type": "MultiLineString", "coordinates": [ [ [ -62.709554311089796, -34.309433662562704 ], [ -62.687802197788685, -34.313323418915239 ] ] ] } },
{ "type": "Feature", "properties": { "Longitud K": "12", "id": "14", "Estado": "Abierto", "Espejo Agu": null, "NombreCami": "Camino Nº 14" }, "geometry": { "type": "MultiLineString", "coordinates": [ [ [ -62.730818165723015, -34.256444188836518 ], [ -62.705909977652269, -34.161659380660446 ], [ -62.703313568871849, -34.150739991979798 ] ] ] } },
{ "type": "Feature", "properties": { "Longitud K": "8.65", "id": "2", "Estado": "Abierto", "Espejo Agu": null, "NombreCami": "Camino Nº 2" }, "geometry": { "type": "MultiLineString", "coordinates": [ [ [ -62.665780913866563, -34.185727527848066 ], [ -62.685609568115218, -34.260467247011775 ] ] ] } },
{ "type": "Feature", "properties": { "Longitud K": "4.99", "id": "12", "Estado": "Abierto", "Espejo Agu": null, "NombreCami": "Camino Nº 12" }, "geometry": { "type": "MultiLineString", "coordinates": [ [ [ -62.664106565874697, -34.233942696762028 ], [ -62.6757802776891, -34.277874693610663 ] ] ] } },
{ "type": "Feature", "properties": { "Longitud K": "5.09", "id": "10", "Estado": "Abierto", "Espejo Agu": null, "NombreCami": "Camino Nº 10" }, "geometry": { "type": "MultiLineString", "coordinates": [ [ [ -62.624580425500433, -34.19341080015122 ], [ -62.645776003454053, -34.273355607599349 ] ] ] } },
{ "type": "Feature", "properties": { "Longitud K": "6.42", "id": "11", "Estado": "Abierto", "Espejo Agu": null, "NombreCami": "Camino Nº 11" }, "geometry": { "type": "MultiLineString", "coordinates": [ [ [ -62.63831844770673, -34.190820223438209 ], [ -62.659456080849822, -34.270607549805966 ] ] ] } },
{ "type": "Feature", "properties": { "Longitud K": "4.06", "id": "24", "Estado": "Abierto", "Espejo Agu": null, "NombreCami": "Camino Nº 24" }, "geometry": { "type": "MultiLineString", "coordinates": [ [ [ -62.713349484943642, -34.280730490724174 ], [ -62.715758298415011, -34.289934181448352 ], [ -62.718233301566457, -34.299364319153739 ], [ -62.720363252275305, -34.307503705230566 ], [ -62.722717149610602, -34.316493349123256 ] ] ] } },
{ "type": "Feature", "properties": { "Longitud K": "2.10", "id": "39", "Estado": "Abierto", "Espejo Agu": null, "NombreCami": "Camino Nº 39" }, "geometry": { "type": "MultiLineString", "coordinates": [ [ [ -62.840142517311406, -34.328712868638043 ], [ -62.83332523863529, -34.329971912623563 ], [ -62.827142393213826, -34.331064061646416 ], [ -62.81784816587259, -34.332795534574274 ] ] ] } },
{ "type": "Feature", "properties": { "Longitud K": "10.33", "id": "2", "Estado": "Abierto", "Espejo Agu": null, "NombreCami": "Camino Nº 2" }, "geometry": { "type": "MultiLineString", "coordinates": [ [ [ -62.60317536806329, -34.02891497823876 ], [ -62.626893800366943, -34.120500532523494 ] ] ] } },
{ "type": "Feature", "properties": { "Longitud K": "7.48", "id": "20", "Estado": "Abierto", "Espejo Agu": null, "NombreCami": "Camino Nº 20" }, "geometry": { "type": "MultiLineString", "coordinates": [ [ [ -62.685428909311554, -34.206058202536987 ], [ -62.606170650473935, -34.220647800767139 ] ] ] } },
{ "type": "Feature", "properties": { "Longitud K": "4.05", "id": "9", "Estado": "Abierto", "Espejo Agu": null, "NombreCami": "Camino Nº 9" }, "geometry": { "type": "MultiLineString", "coordinates": [ [ [ -62.702529488418669, -34.282764699711137 ], [ -62.711765461253762, -34.318574092629724 ] ] ] } },
{ "type": "Feature", "properties": { "Longitud K": "3.02", "id": "8", "Estado": "Abierto", "Espejo Agu": null, "NombreCami": "Camino Nº 8" }, "geometry": { "type": "MultiLineString", "coordinates": [ [ [ -62.724199939603821, -34.278837494616795 ], [ -62.733537788428826, -34.314484467657238 ] ] ] } },
{ "type": "Feature", "properties": { "Longitud K": "1.640", "id": "40", "Estado": "Abierto", "Espejo Agu": null, "NombreCami": "Camino Nº 40" }, "geometry": { "type": "MultiLineString", "coordinates": [ [ [ -62.854350378849134, -34.347120828704647 ], [ -62.83938363922752, -34.349886177016913 ], [ -62.839027227822243, -34.350055612515433 ], [ -62.837458421215828, -34.35107770645989 ] ] ] } },
{ "type": "Feature", "properties": { "Longitud K": "5.23", "id": "19", "Estado": "Abierto", "Espejo Agu": null, "NombreCami": "Camino Nº 19" }, "geometry": { "type": "MultiLineString", "coordinates": [ [ [ -62.610400239964811, -34.237291355408722 ], [ -62.555084897982468, -34.247805597424779 ] ] ] } },
{ "type": "Feature", "properties": { "Longitud K": "5.12", "id": "30", "Estado": "Abierto", "Espejo Agu": null, "NombreCami": "Camino Nº 30" }, "geometry": { "type": "MultiLineString", "coordinates": [ [ [ -62.744517081617474, -34.312507242006582 ], [ -62.690198721172699, -34.322464622341123 ] ] ] } },
{ "type": "Feature", "properties": { "Longitud K": "12.42", "id": "32", "Estado": "Abierto", "Espejo Agu": null, "NombreCami": "Camino Nº 32" }, "geometry": { "type": "MultiLineString", "coordinates": [ [ [ -62.689427352276191, -34.275663508196402 ], [ -62.575287525193829, -34.296818013055479 ], [ -62.568056713629332, -34.298171473729319 ], [ -62.56579731721375, -34.289725511101231 ], [ -62.565797312682463, -34.28972549416067 ], [ -62.565797307225395, -34.289725473758971 ], [ -62.54721228830995, -34.293133445613563 ], [ -62.54643625327185, -34.293558394499193 ] ] ] } },
{ "type": "Feature", "properties": { "Longitud K": "12.572", "id": "5", "Estado": "Abierto", "Espejo Agu": null, "NombreCami": "Camino Nº 5" }, "geometry": { "type": "MultiLineString", "coordinates": [ [ [ -62.735111476009138, -34.276904901059588 ], [ -62.744517081617474, -34.312507242006582 ], [ -62.745559573930763, -34.312430670445892 ], [ -62.765080033408992, -34.386352990073696 ] ] ] } },
{ "type": "Feature", "properties": { "Longitud K": "8.81", "id": "7", "Estado": "Abierto", "Espejo Agu": null, "NombreCami": "Camino Nº 7" }, "geometry": { "type": "MultiLineString", "coordinates": [ [ [ -62.696394274974509, -34.192295371090189 ], [ -62.603064918133207, -34.209200866283346 ] ] ] } },
{ "type": "Feature", "properties": { "Longitud K": "7.49", "id": "13", "Estado": "Abierto", "Espejo Agu": null, "NombreCami": "Camino Nº 13" }, "geometry": { "type": "MultiLineString", "coordinates": [ [ [ -62.679380184467881, -34.183190481815686 ], [ -62.600111012961491, -34.197834879826743 ] ] ] } },
{ "type": "Feature", "properties": { "Longitud K": "6.70", "id": "36", "Estado": "Abierto", "Espejo Agu": null, "NombreCami": "Camino Nº 36" }, "geometry": { "type": "MultiLineString", "coordinates": [ [ [ -62.654195246504251, -34.247809824904301 ], [ -62.725046287296699, -34.234432406056577 ] ] ] } },
{ "type": "Feature", "properties": { "Longitud K": "3.18", "id": "28", "Estado": "Abierto", "Espejo Agu": null, "NombreCami": "Camino Nº 28" }, "geometry": { "type": "MultiLineString", "coordinates": [ [ [ -62.546593833519992, -34.301829383467428 ], [ -62.512875903739641, -34.308162861429729 ] ] ] } },
{ "type": "Feature", "properties": { "Longitud K": "4.76", "id": "37", "Estado": "Abierto", "Espejo Agu": null, "NombreCami": "Camino Nº 37" }, "geometry": { "type": "MultiLineString", "coordinates": [ [ [ -62.608696225808039, -34.027942349774804 ], [ -62.558316987939463, -34.036895140841999 ] ] ] } },
{ "type": "Feature", "properties": { "Longitud K": "15.25", "id": "2S", "Estado": "Abierto", "Espejo Agu": null, "NombreCami": "Camino Pcial 2S" }, "geometry": { "type": "MultiLineString", "coordinates": [ [ [ -62.709855721107182, -34.243169727823123 ], [ -62.672302282219178, -34.112287754435265 ], [ -62.581866725573057, -34.128608315007 ] ] ] } },
{ "type": "Feature", "properties": { "Longitud K": "6.21", "id": "23", "Estado": "Abierto", "Espejo Agu": null, "NombreCami": "Camino Nº 23" }, "geometry": { "type": "MultiLineString", "coordinates": [ [ [ -62.686657029368178, -34.265096085081169 ], [ -62.645786206853025, -34.273399548962352 ], [ -62.645786206853025, -34.273399548962352 ], [ -62.621087649318007, -34.278221489976055 ] ] ] } },
{ "type": "Feature", "properties": { "Longitud K": "5.024", "id": "3", "Estado": "Abierto", "Espejo Agu": null, "NombreCami": "Camino Nº 3" }, "geometry": { "type": "MultiLineString", "coordinates": [ [ [ -62.723168657954936, -34.257554558992574 ], [ -62.759035033175174, -34.223513142534472 ] ] ] } },
{ "type": "Feature", "properties": { "Longitud K": "5.13", "id": "31", "Estado": "Abierto", "Espejo Agu": null, "NombreCami": "Camino Nº 31" }, "geometry": { "type": "MultiLineString", "coordinates": [ [ [ -62.723284371081775, -34.257902217018987 ], [ -62.777382101122306, -34.247006629587794 ] ] ] } },
{ "type": "Feature", "properties": { "Longitud K": "5.8", "id": "44", "Estado": "Abierto", "Espejo Agu": null, "NombreCami": "Camino Nº 44" }, "geometry": { "type": "MultiLineString", "coordinates": [ [ [ -62.752296381244449, -34.271083940653973 ], [ -62.767626745708704, -34.284923137064673 ], [ -62.767626745708704, -34.284923137064673 ], [ -62.794037823905384, -34.310149136144794 ] ] ] } },
{ "type": "Feature", "properties": { "Longitud K": "5.16", "id": "26", "Estado": "Abierto", "Espejo Agu": null, "NombreCami": "Camino Nº 26" }, "geometry": { "type": "MultiLineString", "coordinates": [ [ [ -62.697633924119714, -34.251701324156599 ], [ -62.642990794695223, -34.261820340772211 ] ] ] } },
{ "type": "Feature", "properties": { "Longitud K": "10.273", "id": "27", "Estado": "Abierto", "Espejo Agu": null, "NombreCami": "Camino Nº 27" }, "geometry": { "type": "MultiLineString", "coordinates": [ [ [ -62.555920604829545, -34.386057500006132 ], [ -62.539955561953811, -34.342712336511489 ], [ -62.543792946097803, -34.335205305246802 ], [ -62.553884531393365, -34.330814511735817 ], [ -62.546603491810806, -34.301900439917873 ], [ -62.546769545907125, -34.301669013585403 ], [ -62.545766001210545, -34.29389526588028 ] ] ] } },
{ "type": "Feature", "properties": { "Longitud K": "11.276", "id": "1S", "Estado": "Abierto", "Espejo Agu": null, "NombreCami": "Camino Pcial. 1S" }, "geometry": { "type": "MultiLineString", "coordinates": [ [ [ -62.680861432246502, -34.28707035406606 ], [ -62.707055171152419, -34.386299490092185 ] ] ] } },
{ "type": "Feature", "properties": { "Longitud K": "8.70", "id": "4", "Estado": "Abierto", "Espejo Agu": null, "NombreCami": "Camino Nº 4" }, "geometry": { "type": "MultiLineString", "coordinates": [ [ [ -62.612100822890795, -34.243524953652887 ], [ -62.705323672445346, -34.22623535421701 ] ] ] } },
{ "type": "Feature", "properties": { "Longitud K": "22", "id": "201S", "Estado": "Abierto", "Espejo Agu": null, "NombreCami": "Camino 201-S" }, "geometry": { "type": "MultiLineString", "coordinates": [ [ [ -62.606372992213196, -34.221818124139325 ], [ -62.548289233822196, -33.99929293951827 ], [ -62.582320693889734, -33.993232373397333 ] ] ] } },
{ "type": "Feature", "properties": { "Longitud K": "7.5", "id": "1", "Estado": "Abierto", "Espejo Agu": null, "NombreCami": "Camino Nº1" }, "geometry": { "type": "MultiLineString", "coordinates": [ [ [ -62.623197496654143, -34.287595351809877 ], [ -62.606259014420559, -34.222473637672131 ] ] ] } },
{ "type": "Feature", "properties": { "Longitud K": "8.65", "id": "2", "Estado": "Abierto", "Espejo Agu": null, "NombreCami": "Camino Nº 2" }, "geometry": { "type": "MultiLineString", "coordinates": [ [ [ -62.636963651533428, -34.11871625947019 ], [ -62.654797729194065, -34.187479053626788 ] ] ] } },
{ "type": "Feature", "properties": { "Longitud K": "9.80", "id": "6", "Estado": "Abierto", "Espejo Agu": null, "NombreCami": "Camino Nº 6" }, "geometry": { "type": "MultiLineString", "coordinates": [ [ [ -62.696112405369441, -34.245931428403573 ], [ -62.673225087372252, -34.159907037786404 ] ] ] } },
{ "type": "Feature", "properties": { "Longitud K": "5.20", "id": "15", "Estado": "Abierto", "Espejo Agu": null, "NombreCami": "Camino Nº 15" }, "geometry": { "type": "MultiLineString", "coordinates": [ [ [ -62.64151871266926, -34.136763163716431 ], [ -62.586844307186347, -34.14656440078911 ] ] ] } },
{ "type": "Feature", "properties": { "Longitud K": null, "id": "16", "Estado": "Abierto", "Espejo Agu": null, "NombreCami": "Camino Nº 16" }, "geometry": { "type": "MultiLineString", "coordinates": [ [ [ -62.57010861242123, -34.082997715268583 ], [ -62.641008843660515, -34.070090366843296 ] ] ] } },
{ "type": "Feature", "properties": { "Longitud K": "4.30", "id": "17", "Estado": "Abierto", "Espejo Agu": null, "NombreCami": "Camino Nº 17" }, "geometry": { "type": "MultiLineString", "coordinates": [ [ [ -62.609601315538924, -34.053916412554614 ], [ -62.564692557879738, -34.061984163992463 ] ] ] } },
{ "type": "Feature", "properties": { "Longitud K": "5.50", "id": "18", "Estado": "Abierto", "Espejo Agu": null, "NombreCami": "Camino Nº 18" }, "geometry": { "type": "MultiLineString", "coordinates": [ [ [ -62.53922631031039, -34.187691131116814 ], [ -62.526489382191052, -34.138566334190251 ] ] ] } },
{ "type": "Feature", "properties": { "Longitud K": "5.50", "id": "21", "Estado": "Abierto", "Espejo Agu": null, "NombreCami": "Camino Nº 21" }, "geometry": { "type": "MultiLineString", "coordinates": [ [ [ -62.638770304198125, -34.125957661592935 ], [ -62.626356409229771, -34.128200622538628 ], [ -62.626909416062865, -34.129965556935353 ], [ -62.594828414187305, -34.13564963881845 ], [ -62.597097656722227, -34.144651316925675 ] ] ] } },
{ "type": "Feature", "properties": { "Longitud K": null, "id": "25", "Estado": "Abierto", "Espejo Agu": null, "NombreCami": "Camino Nº 25" }, "geometry": { "type": "MultiLineString", "coordinates": [ [ [ -62.698729380615639, -34.311345343107597 ], [ -62.696345985326623, -34.302411529556991 ] ] ] } },
{ "type": "Feature", "properties": { "Longitud K": "5", "id": "29", "Estado": "Abierto", "Espejo Agu": null, "NombreCami": "Camino Nº 29" }, "geometry": { "type": "MultiLineString", "coordinates": [ [ [ -62.532506242598856, -34.161551498633834 ], [ -62.587854987260805, -34.151366440671588 ] ] ] } },
{ "type": "Feature", "properties": { "Longitud K": "11.30", "id": "33", "Estado": "Abierto", "Espejo Agu": null, "NombreCami": "Camino Nº 33" }, "geometry": { "type": "MultiLineString", "coordinates": [ [ [ -62.539994178874821, -34.190376252409578 ], [ -62.565737030191251, -34.289383503519936 ] ] ] } },
{ "type": "Feature", "properties": { "Longitud K": "4", "id": "34", "Estado": "Abierto", "Espejo Agu": null, "NombreCami": "Camino Nº 34" }, "geometry": { "type": "MultiLineString", "coordinates": [ [ [ -62.739741050258004, -34.294525971555139 ], [ -62.696342424352778, -34.302386853778231 ] ] ] } },
{ "type": "Feature", "properties": { "Longitud K": "14", "id": "35", "Estado": "Abierto", "Espejo Agu": null, "NombreCami": "Camino Nº 35" }, "geometry": { "type": "MultiLineString", "coordinates": [ [ [ -62.706954441258318, -34.386187962404549 ], [ -62.555638897470985, -34.386191853425785 ] ] ] } },
{ "type": "Feature", "properties": { "Longitud K": "4.26", "id": "38", "Estado": "Abierto", "Espejo Agu": null, "NombreCami": "Camino Nº 38" }, "geometry": { "type": "MultiLineString", "coordinates": [ [ [ -62.619985475309015, -34.093941853042686 ], [ -62.581705057815221, -34.100835388237954 ], [ -62.579133888804712, -34.100772553203498 ], [ -62.574779662197201, -34.101508051110301 ] ] ] } },
{ "type": "Feature", "properties": { "Longitud K": "9.2", "id": "41", "Estado": "Abierto", "Espejo Agu": null, "NombreCami": "Camino Nº 41" }, "geometry": { "type": "MultiLineString", "coordinates": [ [ [ -62.819194973833802, -34.332322740172955 ], [ -62.752967685495719, -34.270739167929413 ] ] ] } }
]
}
