{
"type": "FeatureCollection",
"name": "referencias",
"crs": { "type": "name", "properties": { "name": "urn:ogc:def:crs:OGC:1.3:CRS84" } },
"features": [
{ "type": "Feature", "properties": { "Name": "Virgen del Camino\n", "description": null, "timestamp": null, "begin": null, "end": null, "altitudeMode": null, "tessellate": -1, "extrude": 0, "visibility": -1, "drawOrder": null, "icon": null }, "geometry": { "type": "Point", "coordinates": [ -62.6360693, -34.2379813, 0.0 ] } },
{ "type": "Feature", "properties": { "Name": "Est. La Quiquita\n", "description": null, "timestamp": null, "begin": null, "end": null, "altitudeMode": null, "tessellate": -1, "extrude": 0, "visibility": -1, "drawOrder": null, "icon": null }, "geometry": { "type": "Point", "coordinates": [ -62.5833588, -34.1289403, 0.0 ] } },
{ "type": "Feature", "properties": { "Name": "Est. San Juan\n", "description": null, "timestamp": null, "begin": null, "end": null, "altitudeMode": null, "tessellate": -1, "extrude": 0, "visibility": -1, "drawOrder": null, "icon": null }, "geometry": { "type": "Point", "coordinates": [ -62.6246189, -34.193218, 0.0 ] } },
{ "type": "Feature", "properties": { "Name": "Fábrica Vieja", "description": null, "timestamp": null, "begin": null, "end": null, "altitudeMode": null, "tessellate": -1, "extrude": 0, "visibility": -1, "drawOrder": null, "icon": null }, "geometry": { "type": "Point", "coordinates": [ -62.6719638, -34.1122811, 0.0 ] } },
{ "type": "Feature", "properties": { "Name": "ACA  - Rufino\n", "description": null, "timestamp": null, "begin": null, "end": null, "altitudeMode": null, "tessellate": -1, "extrude": 0, "visibility": -1, "drawOrder": null, "icon": null }, "geometry": { "type": "Point", "coordinates": [ -62.6072895, -34.223184, 0.0 ] } },
{ "type": "Feature", "properties": { "Name": "Frigorifico MARU\n", "description": null, "timestamp": null, "begin": null, "end": null, "altitudeMode": null, "tessellate": -1, "extrude": 0, "visibility": -1, "drawOrder": null, "icon": null }, "geometry": { "type": "Point", "coordinates": [ -62.6549349, -34.2494239, 0.0 ] } },
{ "type": "Feature", "properties": { "Name": "LAGUNA QUINTAS", "description": null, "timestamp": null, "begin": null, "end": null, "altitudeMode": null, "tessellate": -1, "extrude": 0, "visibility": -1, "drawOrder": null, "icon": null }, "geometry": { "type": "Point", "coordinates": [ -62.6528838, -34.2479592, 0.0 ] } },
{ "type": "Feature", "properties": { "Name": "La Ludovica", "description": null, "timestamp": null, "begin": null, "end": null, "altitudeMode": null, "tessellate": -1, "extrude": 0, "visibility": -1, "drawOrder": null, "icon": null }, "geometry": { "type": "Point", "coordinates": [ -62.6752087, -34.1726915, 0.0 ] } },
{ "type": "Feature", "properties": { "Name": "Campo Esc. Agrotecnica\n", "description": null, "timestamp": null, "begin": null, "end": null, "altitudeMode": null, "tessellate": -1, "extrude": 0, "visibility": -1, "drawOrder": null, "icon": null }, "geometry": { "type": "Point", "coordinates": [ -62.6657853, -34.1911499, 0.0 ] } },
{ "type": "Feature", "properties": { "Name": "Est. El Despegue\n", "description": null, "timestamp": null, "begin": null, "end": null, "altitudeMode": null, "tessellate": -1, "extrude": 0, "visibility": -1, "drawOrder": null, "icon": null }, "geometry": { "type": "Point", "coordinates": [ -62.6242616, -34.1207079, 0.0 ] } },
{ "type": "Feature", "properties": { "Name": "Molino Alto\n", "description": null, "timestamp": null, "begin": null, "end": null, "altitudeMode": null, "tessellate": -1, "extrude": 0, "visibility": -1, "drawOrder": null, "icon": null }, "geometry": { "type": "Point", "coordinates": [ -62.6908765, -34.1765019, 0.0 ] } },
{ "type": "Feature", "properties": { "Name": "La Pichaina\n", "description": null, "timestamp": null, "begin": null, "end": null, "altitudeMode": null, "tessellate": -1, "extrude": 0, "visibility": -1, "drawOrder": null, "icon": null }, "geometry": { "type": "Point", "coordinates": [ -62.6748765, -34.1204612, 0.0 ] } },
{ "type": "Feature", "properties": { "Name": "La Josefina\n", "description": null, "timestamp": null, "begin": null, "end": null, "altitudeMode": null, "tessellate": -1, "extrude": 0, "visibility": -1, "drawOrder": null, "icon": null }, "geometry": { "type": "Point", "coordinates": [ -62.6730956, -34.1149365, 0.0 ] } },
{ "type": "Feature", "properties": { "Name": "Est. Las Angelas\n", "description": null, "timestamp": null, "begin": null, "end": null, "altitudeMode": null, "tessellate": -1, "extrude": 0, "visibility": -1, "drawOrder": null, "icon": null }, "geometry": { "type": "Point", "coordinates": [ -62.758011, -34.343289, 0.0 ] } },
{ "type": "Feature", "properties": { "Name": "Est. Los Paraisos\n", "description": null, "timestamp": null, "begin": null, "end": null, "altitudeMode": null, "tessellate": -1, "extrude": 0, "visibility": -1, "drawOrder": null, "icon": null }, "geometry": { "type": "Point", "coordinates": [ -62.6658429, -34.1849579, 0.0 ] } },
{ "type": "Feature", "properties": { "Name": "Est. Chiappero\n", "description": null, "timestamp": null, "begin": null, "end": null, "altitudeMode": null, "tessellate": -1, "extrude": 0, "visibility": -1, "drawOrder": null, "icon": null }, "geometry": { "type": "Point", "coordinates": [ -62.6718705, -34.2656324, 0.0 ] } },
{ "type": "Feature", "properties": { "Name": "Tambo Goma\n", "description": null, "timestamp": null, "begin": null, "end": null, "altitudeMode": null, "tessellate": -1, "extrude": 0, "visibility": -1, "drawOrder": null, "icon": null }, "geometry": { "type": "Point", "coordinates": [ -62.672452, -34.2701348, 0.0 ] } },
{ "type": "Feature", "properties": { "Name": "El Hornero\n", "description": null, "timestamp": null, "begin": null, "end": null, "altitudeMode": null, "tessellate": -1, "extrude": 0, "visibility": -1, "drawOrder": null, "icon": null }, "geometry": { "type": "Point", "coordinates": [ -62.5649359, -34.0903033, 0.0 ] } },
{ "type": "Feature", "properties": { "Name": "Los Padres Polo Club\n", "description": null, "timestamp": null, "begin": null, "end": null, "altitudeMode": null, "tessellate": -1, "extrude": 0, "visibility": -1, "drawOrder": null, "icon": null }, "geometry": { "type": "Point", "coordinates": [ -62.7226734, -34.2419426, 0.0 ] } },
{ "type": "Feature", "properties": { "Name": "Est. El Palenque\n", "description": null, "timestamp": null, "begin": null, "end": null, "altitudeMode": null, "tessellate": -1, "extrude": 0, "visibility": -1, "drawOrder": null, "icon": null }, "geometry": { "type": "Point", "coordinates": [ -62.6475178, -34.1796371, 0.0 ] } },
{ "type": "Feature", "properties": { "Name": "Est. El Paraiso\n", "description": null, "timestamp": null, "begin": null, "end": null, "altitudeMode": null, "tessellate": -1, "extrude": 0, "visibility": -1, "drawOrder": null, "icon": null }, "geometry": { "type": "Point", "coordinates": [ -62.533103, -33.9331246, 0.0 ] } },
{ "type": "Feature", "properties": { "Name": "Almacen Cullak\n", "description": null, "timestamp": null, "begin": null, "end": null, "altitudeMode": null, "tessellate": -1, "extrude": 0, "visibility": -1, "drawOrder": null, "icon": null }, "geometry": { "type": "Point", "coordinates": [ -62.5629581, -34.0576132, 0.0 ] } },
{ "type": "Feature", "properties": { "Name": "Est. Las Nazarenas\n", "description": null, "timestamp": null, "begin": null, "end": null, "altitudeMode": null, "tessellate": -1, "extrude": 0, "visibility": -1, "drawOrder": null, "icon": null }, "geometry": { "type": "Point", "coordinates": [ -62.5670507, -34.0523988, 0.0 ] } },
{ "type": "Feature", "properties": { "Name": "Est. Gianoglio\n", "description": null, "timestamp": null, "begin": null, "end": null, "altitudeMode": null, "tessellate": -1, "extrude": 0, "visibility": -1, "drawOrder": null, "icon": null }, "geometry": { "type": "Point", "coordinates": [ -62.6005676, -34.0518299, 0.0 ] } },
{ "type": "Feature", "properties": { "Name": "Est. Martinelli\n", "description": null, "timestamp": null, "begin": null, "end": null, "altitudeMode": null, "tessellate": -1, "extrude": 0, "visibility": -1, "drawOrder": null, "icon": null }, "geometry": { "type": "Point", "coordinates": [ -62.6028851, -34.0594742, 0.0 ] } },
{ "type": "Feature", "properties": { "Name": "Est. Giacardo\n", "description": null, "timestamp": null, "begin": null, "end": null, "altitudeMode": null, "tessellate": -1, "extrude": 0, "visibility": -1, "drawOrder": null, "icon": null }, "geometry": { "type": "Point", "coordinates": [ -62.6107239, -34.052841, 0.0 ] } },
{ "type": "Feature", "properties": { "Name": "Est. Proadolengo\n", "description": null, "timestamp": null, "begin": null, "end": null, "altitudeMode": null, "tessellate": -1, "extrude": 0, "visibility": -1, "drawOrder": null, "icon": null }, "geometry": { "type": "Point", "coordinates": [ -62.8420991, -34.350879, 0.0 ] } },
{ "type": "Feature", "properties": { "Name": "Tambo Rossi\n", "description": null, "timestamp": null, "begin": null, "end": null, "altitudeMode": null, "tessellate": -1, "extrude": 0, "visibility": -1, "drawOrder": null, "icon": null }, "geometry": { "type": "Point", "coordinates": [ -62.631064, -34.1154051, 0.0 ] } },
{ "type": "Feature", "properties": { "Name": "Est. La Argentina\n", "description": null, "timestamp": null, "begin": null, "end": null, "altitudeMode": null, "tessellate": -1, "extrude": 0, "visibility": -1, "drawOrder": null, "icon": null }, "geometry": { "type": "Point", "coordinates": [ -62.5806963, -34.1016563, 0.0 ] } },
{ "type": "Feature", "properties": { "Name": "Est. Don Cesar\n", "description": null, "timestamp": null, "begin": null, "end": null, "altitudeMode": null, "tessellate": -1, "extrude": 0, "visibility": -1, "drawOrder": null, "icon": null }, "geometry": { "type": "Point", "coordinates": [ -62.6245148, -34.0901318, 0.0 ] } },
{ "type": "Feature", "properties": { "Name": "Est. Bettini\n", "description": null, "timestamp": null, "begin": null, "end": null, "altitudeMode": null, "tessellate": -1, "extrude": 0, "visibility": -1, "drawOrder": null, "icon": null }, "geometry": { "type": "Point", "coordinates": [ -62.6236656, -34.0699942, 0.0 ] } },
{ "type": "Feature", "properties": { "Name": "Est. Don Raúl", "description": null, "timestamp": null, "begin": null, "end": null, "altitudeMode": null, "tessellate": -1, "extrude": 0, "visibility": -1, "drawOrder": null, "icon": null }, "geometry": { "type": "Point", "coordinates": [ -62.6755164, -34.1348912, 0.0 ] } },
{ "type": "Feature", "properties": { "Name": "Est. Ossa\n", "description": null, "timestamp": null, "begin": null, "end": null, "altitudeMode": null, "tessellate": -1, "extrude": 0, "visibility": -1, "drawOrder": null, "icon": null }, "geometry": { "type": "Point", "coordinates": [ -62.5415441, -34.1307917, 0.0 ] } },
{ "type": "Feature", "properties": { "Name": "Est. Punta Azul\n", "description": null, "timestamp": null, "begin": null, "end": null, "altitudeMode": null, "tessellate": -1, "extrude": 0, "visibility": -1, "drawOrder": null, "icon": null }, "geometry": { "type": "Point", "coordinates": [ -62.7846335, -34.2748824, 0.0 ] } },
{ "type": "Feature", "properties": { "Name": "Est. El Porvenir\n", "description": null, "timestamp": null, "begin": null, "end": null, "altitudeMode": null, "tessellate": -1, "extrude": 0, "visibility": -1, "drawOrder": null, "icon": null }, "geometry": { "type": "Point", "coordinates": [ -62.7319344, -34.360447, 0.0 ] } },
{ "type": "Feature", "properties": { "Name": "Est. La Concordia\n", "description": null, "timestamp": null, "begin": null, "end": null, "altitudeMode": null, "tessellate": -1, "extrude": 0, "visibility": -1, "drawOrder": null, "icon": null }, "geometry": { "type": "Point", "coordinates": [ -62.5891122, -34.2395637, 0.0 ] } },
{ "type": "Feature", "properties": { "Name": "Est. 3 Arboles\n", "description": null, "timestamp": null, "begin": null, "end": null, "altitudeMode": null, "tessellate": -1, "extrude": 0, "visibility": -1, "drawOrder": null, "icon": null }, "geometry": { "type": "Point", "coordinates": [ -62.7761532, -34.2915959, 0.0 ] } },
{ "type": "Feature", "properties": { "Name": "Est. San Alfredo\n", "description": null, "timestamp": null, "begin": null, "end": null, "altitudeMode": null, "tessellate": -1, "extrude": 0, "visibility": -1, "drawOrder": null, "icon": null }, "geometry": { "type": "Point", "coordinates": [ -62.60636, -34.0372562, 0.0 ] } },
{ "type": "Feature", "properties": { "Name": "VIVIENDAS EN CONSTRUCCION\n", "description": "VIVIENDAS EN CONSTRUCCION", "timestamp": null, "begin": null, "end": null, "altitudeMode": null, "tessellate": -1, "extrude": 0, "visibility": -1, "drawOrder": null, "icon": null }, "geometry": { "type": "Point", "coordinates": [ -62.7222011, -34.259038, 0.0 ] } },
{ "type": "Feature", "properties": { "Name": "ASSA Lagunas Facultativas\n", "description": "ASSA Lagunas Facultativas", "timestamp": null, "begin": null, "end": null, "altitudeMode": null, "tessellate": -1, "extrude": 0, "visibility": -1, "drawOrder": null, "icon": null }, "geometry": { "type": "Point", "coordinates": [ -62.7150879, -34.2913272, 0.0 ] } }
]
}
