{
"type": "FeatureCollection",
"name": "Zonas",
"crs": { "type": "name", "properties": { "name": "urn:ogc:def:crs:OGC:1.3:CRS84" } },
"features": [
{ "type": "Feature", "properties": { "id": 1, "Hoja": "Hoja 1" }, "geometry": { "type": "MultiPolygon", "coordinates": [ [ [ [ -62.640883769996499, -34.07011644576442 ], [ -62.544569890212628, -33.943206715498086 ], [ -62.534715731430296, -33.944962367527303 ], [ -62.570329792005168, -34.082762811196943 ], [ -62.640883769996499, -34.07011644576442 ] ] ] ] } },
{ "type": "Feature", "properties": { "id": 2, "Hoja": "Hoja 2" }, "geometry": { "type": "MultiPolygon", "coordinates": [ [ [ [ -62.570290129272493, -34.082859725668342 ], [ -62.581870158021715, -34.128426046307702 ], [ -62.470184307050388, -34.147774958282859 ], [ -62.472962271516018, -34.160607470611751 ], [ -62.56705445428549, -34.201342645819068 ], [ -62.679334114574047, -34.183247592688296 ], [ -62.678405104117516, -34.179538785925509 ], [ -62.69207376219007, -34.176976978830872 ], [ -62.693250674413335, -34.180574900104233 ], [ -62.709965262241298, -34.177634700076538 ], [ -62.703898440768377, -34.151556351730711 ], [ -62.64092064465828, -34.070229185775617 ], [ -62.570290129272493, -34.082859725668342 ] ] ] ] } },
{ "type": "Feature", "properties": { "id": 4, "Hoja": "Hoja 4" }, "geometry": { "type": "MultiPolygon", "coordinates": [ [ [ [ -62.512953305608178, -34.308039281026808 ], [ -62.623514526723469, -34.28743615901967 ], [ -62.599667490874879, -34.196117675739472 ], [ -62.567035738864867, -34.201349856944653 ], [ -62.472977409314076, -34.16062242536163 ], [ -62.512953305608178, -34.308039281026808 ] ] ] ] } },
{ "type": "Feature", "properties": { "id": 6, "Hoja": "Hoja 6" }, "geometry": { "type": "MultiPolygon", "coordinates": [ [ [ [ -62.706972911656727, -34.386338678362549 ], [ -62.678412287931721, -34.277394020787554 ], [ -62.514883878541958, -34.307733629652603 ], [ -62.535670296445822, -34.38604163574886 ], [ -62.706972911656727, -34.386338678362549 ] ] ] ] } },
{ "type": "Feature", "properties": { "id": 5, "Hoja": "Hoja 5" }, "geometry": { "type": "MultiPolygon", "coordinates": [ [ [ [ -62.884226439299049, -34.386568168913243 ], [ -62.777268653008754, -34.247010799794566 ], [ -62.673169163567209, -34.267953873469018 ], [ -62.675802275794787, -34.277840317866158 ], [ -62.678448249924912, -34.27736879375022 ], [ -62.707019121153088, -34.386339748764186 ], [ -62.884226439299049, -34.386568168913243 ] ] ] ] } },
{ "type": "Feature", "properties": { "id": 3, "Hoja": "Hoja 3" }, "geometry": { "type": "MultiPolygon", "coordinates": [ [ [ [ -62.776978920937466, -34.246934828918128 ], [ -62.70391137118775, -34.151596720300986 ], [ -62.710005804171558, -34.17764312174512 ], [ -62.693183047552992, -34.180644053328415 ], [ -62.692006417791291, -34.177024283544476 ], [ -62.678441282029823, -34.179587182136352 ], [ -62.679398814628811, -34.183264645385812 ], [ -62.600143437374832, -34.197791208149013 ], [ -62.623575609140772, -34.287486315761093 ], [ -62.675773496726791, -34.277858044887395 ], [ -62.673102719331801, -34.267816965299687 ], [ -62.776978920937466, -34.246934828918128 ] ] ] ] } }
]
}
